start=new Date('2022-09-27T00:00:00.000Z').valueOf();
sats=[{"RA_OF_ASC_NODE":"35.0987","APOAPSIS":"540.884","PERIAPSIS":"538.623","TLE_LINE1":"1 52703U 22053AZ  22268.66241099 -.00000922  00000-0 -39825-4 0  9992","CENTER_NAME":"EARTH","COUNTRY_CODE":"US","CLASSIFICATION_TYPE":"U","MEAN_ANOMALY":"296.9832","LAUNCH_DATE":"2022-05-18","OBJECT_TYPE":"PAYLOAD","SEMIMAJOR_AXIS":"6917.888","REV_AT_EPOCH":"1966","EPOCH":"2022-09-25T15:53:52.309536","DECAY_DATE":null,"TIME_SYSTEM":"UTC","TLE_LINE2":"2 52703  53.2202  35.0987 0001634  63.1327 296.9832 15.08837417 19666","MEAN_MOTION_DOT":"-0.00000922","PERIOD":"95.438","SITE":"AFETR","GP_ID":"213509290","ELEMENT_SET_NO":"999","ARG_OF_PERICENTER":"63.1327","OBJECT_ID":"2022-053AZ","REF_FRAME":"TEME","MEAN_ELEMENT_THEORY":"SGP4","OBJECT_NAME":"STARLINK-4020","INCLINATION":"53.2202","RCS_SIZE":"LARGE","FILE":"3583828","NORAD_CAT_ID":"52703","EPHEMERIS_TYPE":"0","MEAN_MOTION":"15.08837417","MEAN_MOTION_DDOT":"0.0000000000000","ECCENTRICITY":"0.00016340","BSTAR":"-0.00003982500000"},{"GP_ID":"213574157","SITE":"AFETR","OBJECT_ID":"2022-053BA","ARG_OF_PERICENTER":"40.8638","ELEMENT_SET_NO":"999","MEAN_ELEMENT_THEORY":"SGP4","REF_FRAME":"TEME","INCLINATION":"53.2187","RCS_SIZE":"LARGE","OBJECT_NAME":"STARLINK-3999","FILE":"3584418","NORAD_CAT_ID":"52704","MEAN_MOTION":"15.08835895","MEAN_MOTION_DDOT":"0.0000000000000","EPHEMERIS_TYPE":"0","BSTAR":"-0.00015613000000","ECCENTRICITY":"0.00020990","APOAPSIS":"541.210","RA_OF_ASC_NODE":"30.8660","CENTER_NAME":"EARTH","TLE_LINE1":"1 52704U 22053BA  22269.60449897 -.00002772  00000-0 -15613-3 0  9997","PERIAPSIS":"538.306","CLASSIFICATION_TYPE":"U","COUNTRY_CODE":"US","LAUNCH_DATE":"2022-05-18","MEAN_ANOMALY":"319.2511","OBJECT_TYPE":"PAYLOAD","DECAY_DATE":null,"EPOCH":"2022-09-26T14:30:28.711008","REV_AT_EPOCH":"2065","SEMIMAJOR_AXIS":"6917.893","PERIOD":"95.438","MEAN_MOTION_DOT":"-0.00002772","TLE_LINE2":"2 52704  53.2187  30.8660 0002099  40.8638 319.2511 15.08835895 20655","TIME_SYSTEM":"UTC"},{"GP_ID":"213575015","SITE":"AFETR","OBJECT_ID":"2022-053BB","ARG_OF_PERICENTER":"44.6178","ELEMENT_SET_NO":"999","MEAN_ELEMENT_THEORY":"SGP4","REF_FRAME":"TEME","INCLINATION":"53.2195","RCS_SIZE":"LARGE","OBJECT_NAME":"STARLINK-3844","NORAD_CAT_ID":"52705","FILE":"3584436","MEAN_MOTION":"15.08831380","MEAN_MOTION_DDOT":"0.0000000000000","EPHEMERIS_TYPE":"0","BSTAR":"0.00005420600000","ECCENTRICITY":"0.00019390","APOAPSIS":"541.113","RA_OF_ASC_NODE":"30.3211","CENTER_NAME":"EARTH","TLE_LINE1":"1 52705U 22053BB  22269.72594511  .00000574  00000-0  54206-4 0  9993","PERIAPSIS":"538.430","CLASSIFICATION_TYPE":"U","COUNTRY_CODE":"US","LAUNCH_DATE":"2022-05-18","MEAN_ANOMALY":"315.4970","OBJECT_TYPE":"PAYLOAD","DECAY_DATE":null,"EPOCH":"2022-09-26T17:25:21.657504","REV_AT_EPOCH":"2067","SEMIMAJOR_AXIS":"6917.907","PERIOD":"95.438","MEAN_MOTION_DOT":"0.00000574","TLE_LINE2":"2 52705  53.2195  30.3211 0001939  44.6178 315.4970 15.08831380 20679","TIME_SYSTEM":"UTC"},{"COUNTRY_CODE":"US","CLASSIFICATION_TYPE":"U","PERIAPSIS":"538.373","TLE_LINE1":"1 52706U 22053BC  22269.59714447  .00001180  00000-0  92260-4 0  9997","CENTER_NAME":"EARTH","RA_OF_ASC_NODE":"30.8993","APOAPSIS":"541.179","TIME_SYSTEM":"UTC","TLE_LINE2":"2 52706  53.2188  30.8993 0002028  47.5786 312.5377 15.08830078 20651","MEAN_MOTION_DOT":"0.00001180","PERIOD":"95.438","SEMIMAJOR_AXIS":"6917.911","REV_AT_EPOCH":"2065","EPOCH":"2022-09-26T14:19:53.282208","DECAY_DATE":null,"OBJECT_TYPE":"PAYLOAD","MEAN_ANOMALY":"312.5377","LAUNCH_DATE":"2022-05-18","OBJECT_NAME":"STARLINK-3970","RCS_SIZE":"LARGE","INCLINATION":"53.2188","REF_FRAME":"TEME","MEAN_ELEMENT_THEORY":"SGP4","ELEMENT_SET_NO":"999","ARG_OF_PERICENTER":"47.5786","OBJECT_ID":"2022-053BC","SITE":"AFETR","GP_ID":"213575028","ECCENTRICITY":"0.00020280","BSTAR":"0.00009226000000","EPHEMERIS_TYPE":"0","MEAN_MOTION_DDOT":"0.0000000000000","MEAN_MOTION":"15.08830078","NORAD_CAT_ID":"52706","FILE":"3584438"},{"MEAN_ANOMALY":"320.2426","LAUNCH_DATE":"2022-05-18","OBJECT_TYPE":"PAYLOAD","SEMIMAJOR_AXIS":"6917.892","EPOCH":"2022-09-26T17:16:08.325120","REV_AT_EPOCH":"2116","DECAY_DATE":null,"TIME_SYSTEM":"UTC","TLE_LINE2":"2 52707  53.2194  30.3484 0001733  39.8693 320.2426 15.08836082 21161","MEAN_MOTION_DOT":"-0.00002117","PERIOD":"95.438","RA_OF_ASC_NODE":"30.3484","APOAPSIS":"540.956","PERIAPSIS":"538.558","TLE_LINE1":"1 52707U 22053BD  22269.71954080 -.00002117  00000-0 -11495-3 0  9994","CENTER_NAME":"EARTH","COUNTRY_CODE":"US","CLASSIFICATION_TYPE":"U","FILE":"3584555","NORAD_CAT_ID":"52707","EPHEMERIS_TYPE":"0","MEAN_MOTION_DDOT":"0.0000000000000","MEAN_MOTION":"15.08836082","ECCENTRICITY":"0.00017330","BSTAR":"-0.00011495000000","SITE":"AFETR","GP_ID":"213602660","ELEMENT_SET_NO":"999","ARG_OF_PERICENTER":"39.8693","OBJECT_ID":"2022-053BD","REF_FRAME":"TEME","MEAN_ELEMENT_THEORY":"SGP4","OBJECT_NAME":"STARLINK-4007","RCS_SIZE":"LARGE","INCLINATION":"53.2194"},{"CLASSIFICATION_TYPE":"U","COUNTRY_CODE":"US","CENTER_NAME":"EARTH","TLE_LINE1":"1 52708U 22053BE  22269.75265861 -.00001624  00000-0 -84003-4 0  9999","PERIAPSIS":"538.478","APOAPSIS":"541.074","RA_OF_ASC_NODE":"30.1832","PERIOD":"95.438","MEAN_MOTION_DOT":"-0.00001624","TLE_LINE2":"2 52708  53.2205  30.1832 0001876  41.1698 318.9435 15.08830024 21310","TIME_SYSTEM":"UTC","DECAY_DATE":null,"REV_AT_EPOCH":"2131","EPOCH":"2022-09-26T18:03:49.703904","SEMIMAJOR_AXIS":"6917.911","OBJECT_TYPE":"PAYLOAD","LAUNCH_DATE":"2022-05-18","MEAN_ANOMALY":"318.9435","INCLINATION":"53.2205","RCS_SIZE":"LARGE","OBJECT_NAME":"STARLINK-3962","MEAN_ELEMENT_THEORY":"SGP4","REF_FRAME":"TEME","OBJECT_ID":"2022-053BE","ARG_OF_PERICENTER":"41.1698","ELEMENT_SET_NO":"999","GP_ID":"213601510","SITE":"AFETR","BSTAR":"-0.00008400300000","ECCENTRICITY":"0.00018760","MEAN_MOTION":"15.08830024","MEAN_MOTION_DDOT":"0.0000000000000","EPHEMERIS_TYPE":"0","FILE":"3584555","NORAD_CAT_ID":"52708"},{"CENTER_NAME":"EARTH","TLE_LINE1":"1 52830U 22062A   22270.00001157  .00042987  00000-0  27049-2 0  9991","PERIAPSIS":"538.608","CLASSIFICATION_TYPE":"U","COUNTRY_CODE":"US","APOAPSIS":"541.073","RA_OF_ASC_NODE":"289.0785","DECAY_DATE":null,"REV_AT_EPOCH":"130","EPOCH":"2022-09-27T00:00:00.999648","SEMIMAJOR_AXIS":"6917.976","PERIOD":"95.440","MEAN_MOTION_DOT":"0.00042987","TLE_LINE2":"2 52830  53.2139 289.0785 0001782  56.2333 243.4291 15.08808828  1309","TIME_SYSTEM":"UTC","LAUNCH_DATE":"2022-06-17","MEAN_ANOMALY":"243.4291","OBJECT_TYPE":"PAYLOAD","MEAN_ELEMENT_THEORY":"SGP4","REF_FRAME":"TEME","INCLINATION":"53.2139","RCS_SIZE":"LARGE","OBJECT_NAME":"STARLINK-4091","GP_ID":"213602429","SITE":"AFETR","OBJECT_ID":"2022-062A","ARG_OF_PERICENTER":"56.2333","ELEMENT_SET_NO":"999","BSTAR":"0.00270490000000","ECCENTRICITY":"0.00017820","NORAD_CAT_ID":"52830","FILE":"3584555","MEAN_MOTION_DDOT":"0.0000000000000","MEAN_MOTION":"15.08808828","EPHEMERIS_TYPE":"0"},{"SITE":"AFETR","GP_ID":"213601937","ELEMENT_SET_NO":"999","ARG_OF_PERICENTER":"60.4165","OBJECT_ID":"2022-062B","REF_FRAME":"TEME","MEAN_ELEMENT_THEORY":"SGP4","OBJECT_NAME":"STARLINK-4089","RCS_SIZE":"LARGE","INCLINATION":"53.2143","FILE":"3584555","NORAD_CAT_ID":"52831","EPHEMERIS_TYPE":"0","MEAN_MOTION":"15.08819871","MEAN_MOTION_DDOT":"0.0000000000000","ECCENTRICITY":"0.00014220","BSTAR":"0.00232560000000","RA_OF_ASC_NODE":"289.0815","APOAPSIS":"540.791","PERIAPSIS":"538.823","TLE_LINE1":"1 52831U 22062B   22270.00001157  .00036898  00000-0  23256-2 0  9992","CENTER_NAME":"EARTH","COUNTRY_CODE":"US","CLASSIFICATION_TYPE":"U","MEAN_ANOMALY":"179.2333","LAUNCH_DATE":"2022-06-17","OBJECT_TYPE":"PAYLOAD","SEMIMAJOR_AXIS":"6917.942","REV_AT_EPOCH":"130","EPOCH":"2022-09-27T00:00:00.999648","DECAY_DATE":null,"TIME_SYSTEM":"UTC","TLE_LINE2":"2 52831  53.2143 289.0815 0001422  60.4165 179.2333 15.08819871  1303","MEAN_MOTION_DOT":"0.00036898","PERIOD":"95.439"},{"CENTER_NAME":"EARTH","TLE_LINE1":"1 52832U 22062C   22270.00001157  .00039589  00000-0  24934-2 0  9997","PERIAPSIS":"538.601","CLASSIFICATION_TYPE":"U","COUNTRY_CODE":"US","APOAPSIS":"541.052","RA_OF_ASC_NODE":"289.0811","DECAY_DATE":null,"REV_AT_EPOCH":"130","EPOCH":"2022-09-27T00:00:00.999648","SEMIMAJOR_AXIS":"6917.961","PERIOD":"95.439","MEAN_MOTION_DOT":"0.00039589","TLE_LINE2":"2 52832  53.2140 289.0811 0001772  43.1724 216.4889 15.08813492  1307","TIME_SYSTEM":"UTC","LAUNCH_DATE":"2022-06-17","MEAN_ANOMALY":"216.4889","OBJECT_TYPE":"PAYLOAD","MEAN_ELEMENT_THEORY":"SGP4","REF_FRAME":"TEME","RCS_SIZE":"LARGE","INCLINATION":"53.2140","OBJECT_NAME":"STARLINK-4083","GP_ID":"213602267","SITE":"AFETR","OBJECT_ID":"2022-062C","ARG_OF_PERICENTER":"43.1724","ELEMENT_SET_NO":"999","BSTAR":"0.00249340000000","ECCENTRICITY":"0.00017720","NORAD_CAT_ID":"52832","FILE":"3584555","MEAN_MOTION":"15.08813492","MEAN_MOTION_DDOT":"0.0000000000000","EPHEMERIS_TYPE":"0"},{"MEAN_ELEMENT_THEORY":"SGP4","REF_FRAME":"TEME","RCS_SIZE":"LARGE","INCLINATION":"53.2151","OBJECT_NAME":"STARLINK-4086","SITE":"AFETR","GP_ID":"213601686","OBJECT_ID":"2022-062D","ELEMENT_SET_NO":"999","ARG_OF_PERICENTER":"54.3555","BSTAR":"0.00261790000000","ECCENTRICITY":"0.00017100","FILE":"3584555","NORAD_CAT_ID":"52833","EPHEMERIS_TYPE":"0","MEAN_MOTION":"15.08822799","MEAN_MOTION_DDOT":"0.0000000000000","CENTER_NAME":"EARTH","PERIAPSIS":"538.615","TLE_LINE1":"1 52833U 22062D   22270.00001157  .00041603  00000-0  26179-2 0  9991","COUNTRY_CODE":"US","CLASSIFICATION_TYPE":"U","RA_OF_ASC_NODE":"289.0765","APOAPSIS":"540.981","REV_AT_EPOCH":"130","EPOCH":"2022-09-27T00:00:00.999648","DECAY_DATE":null,"SEMIMAJOR_AXIS":"6917.933","MEAN_MOTION_DOT":"0.00041603","PERIOD":"95.439","TIME_SYSTEM":"UTC","TLE_LINE2":"2 52833  53.2151 289.0765 0001710  54.3555 225.2979 15.08822799  1304","MEAN_ANOMALY":"225.2979","LAUNCH_DATE":"2022-06-17","OBJECT_TYPE":"PAYLOAD"}];
